start=new Date('2022-09-21T00:00:00.000Z').valueOf();
sats=[{"GP_ID":"213072782","PERIAPSIS":"538.625","ECCENTRICITY":"0.00016100","COUNTRY_CODE":"US","MEAN_MOTION_DOT":"0.00000995","MEAN_ELEMENT_THEORY":"SGP4","SEMIMAJOR_AXIS":"6917.873","PERIOD":"95.437","REF_FRAME":"TEME","CENTER_NAME":"EARTH","OBJECT_NAME":"STARLINK-3267","ARG_OF_PERICENTER":"56.5603","OBJECT_ID":"2021-125AT","TLE_LINE1":"1 50197U 21125AT  22263.44738377  .00000995  00000-0  80624-4 0  9998","SITE":"AFWTR","APOAPSIS":"540.852","RCS_SIZE":"LARGE","TIME_SYSTEM":"UTC","MEAN_MOTION_DDOT":"0.0000000000000","EPOCH":"2022-09-20T10:44:13.957728","FILE":"3578736","MEAN_MOTION":"15.08842290","ELEMENT_SET_NO":"999","INCLINATION":"53.2169","NORAD_CAT_ID":"50197","OBJECT_TYPE":"PAYLOAD","RA_OF_ASC_NODE":"163.5124","CLASSIFICATION_TYPE":"U","DECAY_DATE":null,"MEAN_ANOMALY":"303.5543","BSTAR":"0.00008062400000","TLE_LINE2":"2 50197  53.2169 163.5124 0001610  56.5603 303.5543 15.08842290 45624","LAUNCH_DATE":"2021-12-18","EPHEMERIS_TYPE":"0","REV_AT_EPOCH":"4562"},{"PERIAPSIS":"538.494","GP_ID":"213072043","PERIOD":"95.437","SEMIMAJOR_AXIS":"6917.851","MEAN_ELEMENT_THEORY":"SGP4","COUNTRY_CODE":"US","ECCENTRICITY":"0.00017670","MEAN_MOTION_DOT":"0.00000359","CENTER_NAME":"EARTH","TLE_LINE1":"1 50198U 21125AU  22263.43266335  .00000359  00000-0  40629-4 0  9993","OBJECT_ID":"2021-125AU","OBJECT_NAME":"STARLINK-3264","ARG_OF_PERICENTER":"73.6759","REF_FRAME":"TEME","SITE":"AFWTR","RCS_SIZE":"LARGE","APOAPSIS":"540.939","EPOCH":"2022-09-20T10:23:02.113440","MEAN_MOTION_DDOT":"0.0000000000000","TIME_SYSTEM":"UTC","INCLINATION":"53.2162","MEAN_MOTION":"15.08849457","FILE":"3578736","ELEMENT_SET_NO":"999","BSTAR":"0.00004062900000","TLE_LINE2":"2 50198  53.2162 163.5811 0001767  73.6759 286.4427 15.08849457 45572","CLASSIFICATION_TYPE":"U","NORAD_CAT_ID":"50198","OBJECT_TYPE":"PAYLOAD","RA_OF_ASC_NODE":"163.5811","MEAN_ANOMALY":"286.4427","DECAY_DATE":null,"REV_AT_EPOCH":"4557","LAUNCH_DATE":"2021-12-18","EPHEMERIS_TYPE":"0"},{"MEAN_ELEMENT_THEORY":"SGP4","SEMIMAJOR_AXIS":"6917.880","PERIOD":"95.438","ECCENTRICITY":"0.00019610","COUNTRY_CODE":"US","MEAN_MOTION_DOT":"0.00003192","PERIAPSIS":"538.388","GP_ID":"213002781","SITE":"AFWTR","CENTER_NAME":"EARTH","OBJECT_NAME":"STARLINK-3270","ARG_OF_PERICENTER":"48.9286","OBJECT_ID":"2021-125AV","TLE_LINE1":"1 50199U 21125AV  22262.15570217  .00003192  00000-0  21856-3 0  9997","REF_FRAME":"TEME","INCLINATION":"53.2170","FILE":"3577889","MEAN_MOTION":"15.08840181","ELEMENT_SET_NO":"999","RCS_SIZE":"LARGE","TIME_SYSTEM":"UTC","APOAPSIS":"541.101","MEAN_MOTION_DDOT":"0.0000000000000","EPOCH":"2022-09-19T03:44:12.667488","EPHEMERIS_TYPE":"0","LAUNCH_DATE":"2021-12-18","REV_AT_EPOCH":"4537","BSTAR":"0.00021856000000","TLE_LINE2":"2 50199  53.2170 169.2959 0001961  48.9286 311.1875 15.08840181 45370","OBJECT_TYPE":"PAYLOAD","RA_OF_ASC_NODE":"169.2959","NORAD_CAT_ID":"50199","CLASSIFICATION_TYPE":"U","DECAY_DATE":null,"MEAN_ANOMALY":"311.1875"},{"CLASSIFICATION_TYPE":"U","RA_OF_ASC_NODE":"163.5421","OBJECT_TYPE":"PAYLOAD","NORAD_CAT_ID":"50200","MEAN_ANOMALY":"315.7707","DECAY_DATE":null,"BSTAR":"0.00011237000000","TLE_LINE2":"2 50200  53.2179 163.5421 0001919  44.3438 315.7707 15.08850722 45584","REV_AT_EPOCH":"4558","LAUNCH_DATE":"2021-12-18","EPHEMERIS_TYPE":"0","RCS_SIZE":"LARGE","APOAPSIS":"541.040","TIME_SYSTEM":"UTC","MEAN_MOTION_DDOT":"0.0000000000000","EPOCH":"2022-09-20T10:33:38.032992","MEAN_MOTION":"15.08850722","FILE":"3578736","ELEMENT_SET_NO":"999","INCLINATION":"53.2179","REF_FRAME":"TEME","CENTER_NAME":"EARTH","OBJECT_ID":"2021-125AW","TLE_LINE1":"1 50200U 21125AW  22263.44002353  .00001501  00000-0  11237-3 0  9998","OBJECT_NAME":"STARLINK-3235","ARG_OF_PERICENTER":"44.3438","SITE":"AFWTR","GP_ID":"213072544","PERIAPSIS":"538.385","COUNTRY_CODE":"US","ECCENTRICITY":"0.00019190","MEAN_MOTION_DOT":"0.00001501","PERIOD":"95.437","SEMIMAJOR_AXIS":"6917.848","MEAN_ELEMENT_THEORY":"SGP4"},{"RCS_SIZE":"LARGE","APOAPSIS":"540.950","EPOCH":"2022-09-20T10:17:44.863872","MEAN_MOTION_DDOT":"0.0000000000000","TIME_SYSTEM":"UTC","INCLINATION":"53.2178","FILE":"3578736","MEAN_MOTION":"15.08842058","ELEMENT_SET_NO":"999","BSTAR":"0.00009304900000","TLE_LINE2":"2 50201  53.2178 163.6026 0001751  55.6439 304.4719 15.08842058 45576","NORAD_CAT_ID":"50201","OBJECT_TYPE":"PAYLOAD","RA_OF_ASC_NODE":"163.6026","CLASSIFICATION_TYPE":"U","DECAY_DATE":null,"MEAN_ANOMALY":"304.4719","EPHEMERIS_TYPE":"0","LAUNCH_DATE":"2021-12-18","REV_AT_EPOCH":"4557","PERIAPSIS":"538.528","GP_ID":"213073282","SEMIMAJOR_AXIS":"6917.874","MEAN_ELEMENT_THEORY":"SGP4","PERIOD":"95.437","ECCENTRICITY":"0.00017510","COUNTRY_CODE":"US","MEAN_MOTION_DOT":"0.00001193","CENTER_NAME":"EARTH","OBJECT_NAME":"STARLINK-3255","ARG_OF_PERICENTER":"55.6439","OBJECT_ID":"2021-125AX","TLE_LINE1":"1 50201U 21125AX  22263.42899148  .00001193  00000-0  93049-4 0  9992","REF_FRAME":"TEME","SITE":"AFWTR"},{"REV_AT_EPOCH":"4552","EPHEMERIS_TYPE":"0","LAUNCH_DATE":"2021-12-18","TLE_LINE2":"2 50202  53.2162 164.8514 0002079  50.0124 310.1051 15.08844825 45521","BSTAR":"0.00009303100000","MEAN_ANOMALY":"310.1051","DECAY_DATE":null,"CLASSIFICATION_TYPE":"U","RA_OF_ASC_NODE":"164.8514","OBJECT_TYPE":"PAYLOAD","NORAD_CAT_ID":"50202","INCLINATION":"53.2162","ELEMENT_SET_NO":"999","MEAN_MOTION":"15.08844825","FILE":"3578736","EPOCH":"2022-09-20T03:29:41.622432","RCS_SIZE":"LARGE","APOAPSIS":"541.169","MEAN_MOTION_DDOT":"0.0000000000000","TIME_SYSTEM":"UTC","SITE":"AFWTR","OBJECT_ID":"2021-125AY","TLE_LINE1":"1 50202U 21125AY  22263.14562063  .00001193  00000-0  93031-4 0  9996","OBJECT_NAME":"STARLINK-3256","ARG_OF_PERICENTER":"50.0124","CENTER_NAME":"EARTH","REF_FRAME":"TEME","PERIOD":"95.437","MEAN_ELEMENT_THEORY":"SGP4","SEMIMAJOR_AXIS":"6917.866","MEAN_MOTION_DOT":"0.00001193","COUNTRY_CODE":"US","ECCENTRICITY":"0.00020790","PERIAPSIS":"538.292","GP_ID":"213071544"},{"SITE":"AFWTR","REF_FRAME":"TEME","ARG_OF_PERICENTER":"48.3299","OBJECT_NAME":"STARLINK-3257","OBJECT_ID":"2021-125AZ","TLE_LINE1":"1 50203U 21125AZ  22263.83378598  .00002665  00000-0  18546-3 0  9993","CENTER_NAME":"EARTH","MEAN_MOTION_DOT":"0.00002665","ECCENTRICITY":"0.00027210","COUNTRY_CODE":"US","MEAN_ELEMENT_THEORY":"SGP4","SEMIMAJOR_AXIS":"6917.879","PERIOD":"95.438","GP_ID":"213100941","PERIAPSIS":"537.861","LAUNCH_DATE":"2021-12-18","EPHEMERIS_TYPE":"0","REV_AT_EPOCH":"4255","DECAY_DATE":null,"MEAN_ANOMALY":"311.7926","RA_OF_ASC_NODE":"161.7820","OBJECT_TYPE":"PAYLOAD","NORAD_CAT_ID":"50203","CLASSIFICATION_TYPE":"U","TLE_LINE2":"2 50203  53.2148 161.7820 0002721  48.3299 311.7926 15.08840529 42554","BSTAR":"0.00018546000000","ELEMENT_SET_NO":"999","FILE":"3578934","MEAN_MOTION":"15.08840529","INCLINATION":"53.2148","RCS_SIZE":"LARGE","MEAN_MOTION_DDOT":"0.0000000000000","APOAPSIS":"541.626","EPOCH":"2022-09-20T20:00:39.108672","TIME_SYSTEM":"UTC"},{"PERIAPSIS":"538.342","GP_ID":"213073044","PERIOD":"95.437","MEAN_ELEMENT_THEORY":"SGP4","SEMIMAJOR_AXIS":"6917.865","MEAN_MOTION_DOT":"0.00000810","COUNTRY_CODE":"US","ECCENTRICITY":"0.00020070","TLE_LINE1":"1 50204U 21125BA  22263.15298959  .00000810  00000-0  69011-4 0  9995","OBJECT_ID":"2021-125BA","ARG_OF_PERICENTER":"46.6551","OBJECT_NAME":"STARLINK-3254","CENTER_NAME":"EARTH","REF_FRAME":"TEME","SITE":"AFWTR","RCS_SIZE":"LARGE","APOAPSIS":"541.118","EPOCH":"2022-09-20T03:40:18.300576","MEAN_MOTION_DDOT":"0.0000000000000","TIME_SYSTEM":"UTC","INCLINATION":"53.2157","ELEMENT_SET_NO":"999","MEAN_MOTION":"15.08845008","FILE":"3578736","TLE_LINE2":"2 50204  53.2157 164.8388 0002007  46.6551 313.4608 15.08845008 45586","BSTAR":"0.00006901100000","MEAN_ANOMALY":"313.4608","DECAY_DATE":null,"CLASSIFICATION_TYPE":"U","RA_OF_ASC_NODE":"164.8388","OBJECT_TYPE":"PAYLOAD","NORAD_CAT_ID":"50204","REV_AT_EPOCH":"4558","LAUNCH_DATE":"2021-12-18","EPHEMERIS_TYPE":"0"},{"RCS_SIZE":"LARGE","APOAPSIS":"540.942","MEAN_MOTION_DDOT":"0.0000000000000","EPOCH":"2022-09-20T22:00:01.999584","TIME_SYSTEM":"UTC","INCLINATION":"53.2163","ELEMENT_SET_NO":"999","MEAN_MOTION":"15.08855108","FILE":"3578945","TLE_LINE2":"2 50205  53.2163 131.3928 0001796  50.6187  99.8583 15.08855108  1308","BSTAR":"-0.00250320000000","MEAN_ANOMALY":"99.8583","DECAY_DATE":null,"CLASSIFICATION_TYPE":"U","RA_OF_ASC_NODE":"131.3928","OBJECT_TYPE":"PAYLOAD","NORAD_CAT_ID":"50205","REV_AT_EPOCH":"130","LAUNCH_DATE":"2021-12-18","EPHEMERIS_TYPE":"0","PERIAPSIS":"538.457","GP_ID":"213124283","PERIOD":"95.437","MEAN_ELEMENT_THEORY":"SGP4","SEMIMAJOR_AXIS":"6917.834","MEAN_MOTION_DOT":"-0.00039923","COUNTRY_CODE":"US","ECCENTRICITY":"0.00017960","OBJECT_ID":"2021-125BB","TLE_LINE1":"1 50205U 21125BB  22263.91668981 -.00039923  00000-0 -25032-2 0  9998","OBJECT_NAME":"STARLINK-3260","ARG_OF_PERICENTER":"50.6187","CENTER_NAME":"EARTH","REF_FRAME":"TEME","SITE":"AFWTR"},{"RCS_SIZE":"LARGE","TIME_SYSTEM":"UTC","APOAPSIS":"541.174","MEAN_MOTION_DDOT":"0.0000000000000","EPOCH":"2022-09-20T10:07:10.807104","FILE":"3578736","MEAN_MOTION":"15.08831010","ELEMENT_SET_NO":"999","INCLINATION":"53.2174","OBJECT_TYPE":"PAYLOAD","RA_OF_ASC_NODE":"163.6283","NORAD_CAT_ID":"50206","CLASSIFICATION_TYPE":"U","DECAY_DATE":null,"MEAN_ANOMALY":"308.4265","BSTAR":"-0.00000111470000","TLE_LINE2":"2 50206  53.2174 163.6283 0002026  51.6909 308.4265 15.08831010 43491","EPHEMERIS_TYPE":"0","LAUNCH_DATE":"2021-12-18","REV_AT_EPOCH":"4349","GP_ID":"213072044","PERIAPSIS":"538.371","ECCENTRICITY":"0.00020260","COUNTRY_CODE":"US","MEAN_MOTION_DOT":"-0.00000306","MEAN_ELEMENT_THEORY":"SGP4","SEMIMAJOR_AXIS":"6917.908","PERIOD":"95.438","REF_FRAME":"TEME","CENTER_NAME":"EARTH","OBJECT_NAME":"STARLINK-3258","ARG_OF_PERICENTER":"51.6909","TLE_LINE1":"1 50206U 21125BC  22263.42165286 -.00000306  00000-0 -11147-5 0  9993","OBJECT_ID":"2021-125BC","SITE":"AFWTR"}];
